KUIPER-00044            
1 64505U 25134F   25212.91668981 -.00011418  00000+0 -57990-3 0  9994
2 64505  51.8718 147.2403 0011379 257.0693 323.5263 15.15445284  5239
KUIPER-00046            
1 64506U 25134G   25213.41667824 -.00256283  00000+0 -11351-1 0  9996
2 64506  51.8721 143.9653 0007920 268.8212 265.5714 15.22254520  6751
KUIPER-00047            
1 64507U 25134H   25213.21343667  .00029039  00000+0  86508-3 0  9994
2 64507  51.8635 144.4516 0010129 266.5729  93.4098 15.34406785  6739
KUIPER-00048            
1 64508U 25134J   25213.03360967  .00020247  00000+0  57093-3 0  9996
2 64508  51.8759 144.8001 0002927 235.4533 124.6178 15.36388651  6712
KUIPER-00049            
1 64509U 25134K   25213.31692419  .00030869  00000+0  88593-3 0  9998
2 64509  51.8714 143.6796 0006477 245.9547 114.0762 15.35576646  7194
KUIPER-00050            
1 64510U 25134L   25213.19169421  .00044209  00000+0  12798-2 0  9994
2 64510  51.8723 144.3439 0007502 241.5456 118.4774 15.35127437  6739
KUIPER-00051            
1 64511U 25134M   25213.11501424  .00028532  00000+0  81693-3 0  9992
2 64511  51.8727 144.5845 0005056 233.9910 126.0608 15.35698977  7104
KUIPER-00052            
1 64512U 25134N   25213.58335648  .01453478  00000+0  26319-1 0  9991
2 64512  51.8748 141.6903 0003659 270.9087 114.0882 15.46251209  6806
